AEROCUBE 6A             
1 40045U 14033AM  26068.93083119  .00007845  00000+0  67890-3 0  9996
2 40045  97.7128 237.0691 0038730 349.0559  10.9816 14.96848607631764
STARLINK-5800           
1 56041U 23042BH  26068.17213104  .00000755  00000+0  70952-4 0  9991
2 56041  43.0063  32.7480 0001763 270.3709  89.6932 15.02540416163132
